NORAD_CAT_ID,OBJECT_NAME,OBJECT_TYPE,EPOCH,MEAN_MOTION,ECCENTRICITY,INCLINATION,RA_OF_ASC_NODE,ARG_OF_PERICENTER,MEAN_ANOMALY,BSTAR,MEAN_MOTION_DOT,MEAN_MOTION_DDOT,TLE_LINE0,TLE_LINE1,TLE_LINE2,SEMIMAJOR_AXIS,PERIOD,APOGEE,PERIGEE,DECAYED
51965.0,STARLINK-3696,PAYLOAD,2024-07-12 19:55:30,15.04769101,0.0001253,53.0538,231.0197,87.5089,272.6043,0.00014755,1.827e-05,0.0,0 STARLINK-3696,1 51965U 22025K   24194.83021279  .00001827  00000-0  14755-3 0  9992,2 51965  53.0538 231.0197 0001253  87.5089 272.6043 15.04769101129687,6930.352,95.696,553.085,551.348,0.0
51965.0,STARLINK-3696,PAYLOAD,2024-07-13 02:18:04,15.0477083,0.0001261,53.0537,229.8297,88.5939,271.5194,0.00012251,1.47e-05,0.0,0 STARLINK-3696,1 51965U 22025K   24195.09588737  .00001470  00000-0  12251-3 0  9991,2 51965  53.0537 229.8297 0001261  88.5939 271.5194 15.04770830130819,6930.346,95.696,553.085,551.337,0.0
51965.0,STARLINK-3696,PAYLOAD,2024-07-13 08:40:38,15.04774452,0.0001254,53.0534,228.6399,89.9196,270.1936,0.00014958,1.856e-05,0.0,0 STARLINK-3696,1 51965U 22025K   24195.36155923  .00001856  00000-0  14958-3 0  9992,2 51965  53.0534 228.6399 0001254  89.9196 270.1936 15.04774452129763,6930.335,95.695,553.069,551.331,0.0
51965.0,STARLINK-3696,PAYLOAD,2024-07-14 05:24:00,15.04768978,0.0001244,53.0529,224.7732,90.021,270.0921,0.00012563,1.514e-05,0.0,0 STARLINK-3696,1 51965U 22025K   24196.22500750  .00001514  00000-0  12563-3 0  9991,2 51965  53.0529 224.7732 0001244  90.0210 270.0921 15.04768978130989,6930.352,95.696,553.079,551.355,0.0
51965.0,STARLINK-3696,PAYLOAD,2024-07-14 11:46:34,15.04771439,0.0001255,53.0534,223.5828,94.0861,266.0271,8.8617e-05,9.87e-06,0.0,0 STARLINK-3696,1 51965U 22025K   24196.49068082  .00000987  00000-0  88617-4 0  9994,2 51965  53.0534 223.5828 0001255  94.0861 266.0271 15.04771439129938,6930.344,95.696,553.079,551.34,0.0
51965.0,STARLINK-3696,PAYLOAD,2024-07-15 08:29:56,15.04771424,0.000121,53.053,219.7171,91.3984,268.7143,5.6093e-05,5.23e-06,0.0,0 STARLINK-3696,1 51965U 22025K   24197.35412427  .00000523  00000-0  56093-4 0  9995,2 51965  53.0530 219.7171 0001210  91.3984 268.7143 15.04771424131157,6930.344,95.696,553.048,551.371,0.0
51965.0,STARLINK-3696,PAYLOAD,2024-07-15 18:03:48,15.04768412,0.0001245,53.0532,217.9329,92.1606,267.9525,5.0028e-05,4.36e-06,0.0,0 STARLINK-3696,1 51965U 22025K   24197.75263909  .00000436  00000-0  50028-4 0  9993,2 51965  53.0532 217.9329 0001245  92.1606 267.9525 15.04768412130126,6930.354,95.696,553.081,551.356,0.0
51965.0,STARLINK-3696,PAYLOAD,2024-07-16 05:13:18,15.04765655,0.0001245,53.0533,215.851,92.2657,267.8474,4.1677e-05,3.17e-06,0.0,0 STARLINK-3696,1 51965U 22025K   24198.21757226  .00000317  00000-0  41677-4 0  9993,2 51965  53.0533 215.8510 0001245  92.2657 267.8474 15.04765655131289,6930.362,95.696,553.09,551.364,0.0
51965.0,STARLINK-3696,PAYLOAD,2024-07-16 08:24:35,15.0476663,0.000125,53.0534,215.2562,92.165,267.9481,4.6508e-05,3.86e-06,0.0,0 STARLINK-3696,1 51965U 22025K   24198.35040903  .00000386  00000-0  46508-4 0  9999,2 51965  53.0534 215.2562 0001250  92.1650 267.9481 15.04766630130214,6930.359,95.696,553.09,551.358,0.0
51965.0,STARLINK-3696,PAYLOAD,2024-07-17 09:54:53,15.04763474,0.0001279,53.0536,210.4979,90.749,269.3645,2.5008e-05,7.9e-07,0.0,0 STARLINK-3696,1 51965U 22025K   24199.41311480  .00000079  00000-0  25008-4 0  9999,2 51965  53.0536 210.4979 0001279  90.7490 269.3645 15.04763474131461,6930.369,95.696,553.12,551.347,0.0
51965.0,STARLINK-3696,PAYLOAD,2024-07-18 05:02:34,15.0477868,0.0001157,53.0529,206.9284,88.1843,271.9278,0.00019707,2.534e-05,0.0,0 STARLINK-3696,1 51965U 22025K   24200.21012598  .00002534  00000-0  19707-3 0  9994,2 51965  53.0529 206.9284 0001157  88.1843 271.9278 15.04778680131589,6930.322,95.695,552.989,551.385,0.0
51965.0,STARLINK-3696,PAYLOAD,2024-07-18 08:13:51,15.04781797,0.0001215,53.0534,206.3339,89.4846,270.6282,0.00023634,3.095e-05,0.0,0 STARLINK-3696,1 51965U 22025K   24200.34296093  .00003095  00000-0  23634-3 0  9999,2 51965  53.0534 206.3339 0001215  89.4846 270.6282 15.04781797130518,6930.313,95.695,553.02,551.336,0.0
51965.0,STARLINK-3696,PAYLOAD,2024-07-18 17:47:43,15.04771563,0.0001257,53.053,204.5496,93.8084,266.3048,0.00014418,1.779e-05,0.0,0 STARLINK-3696,1 51965U 22025K   24200.74148083  .00001779  00000-0  14418-3 0  9995,2 51965  53.0530 204.5496 0001257  93.8084 266.3048 15.04771563131666,6930.344,95.696,553.08,551.338,0.0
51965.0,STARLINK-3696,PAYLOAD,2024-07-19 04:57:14,15.04763245,0.0001319,53.0548,202.4645,100.913,259.2006,5.6498e-05,5.28e-06,0.0,0 STARLINK-3696,1 51965U 22025K   24201.20642023  .00000528  00000-0  56498-4 0  9996,2 51965  53.0548 202.4645 0001319 100.9130 259.2006 15.04763245131730,6930.37,95.696,553.149,551.32,0.0
51965.0,STARLINK-3696,PAYLOAD,2024-07-19 06:32:53,15.04763453,0.0001241,53.0532,202.1695,98.2646,261.8483,3.7703e-05,2.6e-06,0.0,0 STARLINK-3696,1 51965U 22025K   24201.27283927  .00000260  00000-0  37703-4 0  9998,2 51965  53.0532 202.1695 0001241  98.2646 261.8483 15.04763453130659,6930.369,95.696,553.094,551.374,0.0
51965.0,STARLINK-3696,PAYLOAD,2024-07-19 17:42:23,15.04765251,0.0001222,53.0536,200.088,97.7162,262.3965,-7.1814e-06,-3.79e-06,0.0,0 STARLINK-3696,1 51965U 22025K   24201.73777026 -.00000379  00000-0 -71814-5 0  9992,2 51965  53.0536 200.0880 0001222  97.7162 262.3965 15.04765251130729,6930.363,95.696,553.075,551.381,0.0
51965.0,STARLINK-3696,PAYLOAD,2024-07-20 04:51:52,15.04773546,0.0001349,53.0546,198.0044,107.9549,252.1587,-5.4817e-05,-1.058e-05,0.0,0 STARLINK-3696,1 51965U 22025K   24202.20269652 -.00001058  00000-0 -54817-4 0  9994,2 51965  53.0546 198.0044 0001349 107.9549 252.1587 15.04773546131882,6930.338,95.695,553.138,551.268,0.0
51965.0,STARLINK-3696,PAYLOAD,2024-07-20 06:27:31,15.04772622,0.0001338,53.0545,197.7071,102.9374,257.1763,-6.3764e-05,-1.186e-05,0.0,0 STARLINK-3696,1 51965U 22025K   24202.26911609 -.00001186  00000-0 -63764-4 0  9999,2 51965  53.0545 197.7071 0001338 102.9374 257.1763 15.04772622130802,6930.341,95.696,553.133,551.278,0.0
51965.0,STARLINK-3696,PAYLOAD,2024-07-21 06:22:10,15.04769321,0.0001233,53.0537,193.2474,98.448,261.6648,0.00016126,2.023e-05,0.0,0 STARLINK-3696,1 51965U 22025K   24203.26539557  .00002023  00000-0  16126-3 0  9996,2 51965  53.0537 193.2474 0001233  98.4480 261.6648 15.04769321132044,6930.351,95.696,553.07,551.361,0.0
51965.0,STARLINK-3696,PAYLOAD,2024-07-22 04:41:11,15.04761282,0.0001305,53.0541,189.084,95.0495,265.0642,3.6567e-05,2.44e-06,0.0,0 STARLINK-3696,1 51965U 22025K   24204.19526991  .00000244  00000-0  36567-4 0  9992,2 51965  53.0541 189.0840 0001305  95.0495 265.0642 15.04761282132183,6930.376,95.696,553.145,551.336,0.0
51965.0,STARLINK-3696,PAYLOAD,2024-07-23 03:00:10,15.04773418,0.0001382,53.0544,184.9214,99.0222,261.0923,9.1021e-05,1.021e-05,0.0,0 STARLINK-3696,1 51965U 22025K   24205.12512431  .00001021  00000-0  91021-4 0  9990,2 51965  53.0544 184.9214 0001382  99.0222 261.0923 15.04773418132320,6930.338,95.695,553.161,551.246,0.0
51965.0,STARLINK-3696,PAYLOAD,2024-07-23 07:47:05,15.0478065,0.0001373,53.0542,184.0288,98.2297,261.8847,0.00015948,1.998e-05,0.0,0 STARLINK-3696,1 51965U 22025K   24205.32437433  .00001998  00000-0  15948-3 0  9996,2 51965  53.0542 184.0288 0001373  98.2297 261.8847 15.04780650132355,6930.316,95.695,553.133,551.23,0.0
51965.0,STARLINK-3696,PAYLOAD,2024-07-23 15:45:19,15.04768667,0.0001622,53.054,182.5397,88.4862,271.6312,1.1471e-05,-1.14e-06,0.0,0 STARLINK-3696,1 51965U 22025K   24205.65647898 -.00000114  00000-0  11471-4 0  9998,2 51965  53.0540 182.5397 0001622  88.4862 271.6312 15.04768667132409,6930.353,95.696,553.342,551.094,0.0
51965.0,STARLINK-3696,PAYLOAD,2024-07-23 22:07:54,15.04764577,0.000166,53.0537,181.3523,85.1261,274.9916,9.3674e-05,1.058e-05,0.0,0 STARLINK-3696,1 51965U 22025K   24205.92215767  .00001058  00000-0  93674-4 0  9996,2 51965  53.0537 181.3523 0001660  85.1261 274.9916 15.04764577131357,6930.365,95.696,553.381,551.08,0.0
51965.0,STARLINK-3696,PAYLOAD,2024-07-24 02:54:50,15.04761693,0.0001548,53.0534,180.4588,83.1609,276.9556,3.8154e-05,2.67e-06,0.0,0 STARLINK-3696,1 51965U 22025K   24206.12141768  .00000267  00000-0  38154-4 0  9991,2 51965  53.0534 180.4588 0001548  83.1609 276.9556 15.04761693132476,6930.374,95.696,553.312,551.166,0.0
51965.0,STARLINK-3696,PAYLOAD,2024-07-24 07:41:46,15.04762421,0.0001467,53.0529,179.5656,85.596,274.5196,6.4938e-05,6.49e-06,0.0,0 STARLINK-3696,1 51965U 22025K   24206.32067354  .00000649  00000-0  64938-4 0  9994,2 51965  53.0529 179.5656 0001467  85.5960 274.5196 15.04762421131418,6930.372,95.696,553.254,551.22,0.0
51965.0,STARLINK-3696,PAYLOAD,2024-07-24 22:02:31,15.04789805,0.0001517,53.0543,176.8931,76.5645,283.5512,0.00013953,1.714e-05,0.0,0 STARLINK-3696,1 51965U 22025K   24206.91842112  .00001714  00000-0  13953-3 0  9996,2 51965  53.0543 176.8931 0001517  76.5645 283.5512 15.04789805131503,6930.288,95.694,553.204,551.102,0.0
51965.0,STARLINK-3696,PAYLOAD,2024-07-25 04:24:49,15.04992874,0.0001012,53.0538,175.6979,88.8406,271.2698,0.0020195,0.00028804,0.0,0 STARLINK-3696,1 51965U 22025K   24207.18390789  .00028804  00000-0  20195-2 0  9998,2 51965  53.0538 175.6979 0001012  88.8406 271.2698 15.04992874132633,6929.665,95.682,552.231,550.828,0.0
51965.0,STARLINK-3696,PAYLOAD,2024-07-25 09:11:38,15.05058786,8.41e-05,53.0536,174.8124,49.0958,311.0103,0.0025421,0.00036433,0.0,0 STARLINK-3696,1 51965U 22025K   24207.38308408  .00036433  00000-0  25421-2 0  9991,2 51965  53.0536 174.8124 0000841  49.0958 311.0103 15.05058786132667,6929.462,95.677,551.91,550.744,0.0
51965.0,STARLINK-3696,PAYLOAD,2024-07-26 04:18:24,15.05575272,0.0001055,53.0543,171.2317,95.7756,264.3353,0.0067112,0.00098867,0.0,0 STARLINK-3696,1 51965U 22025K   24208.17945530  .00098867  00000-0  67112-2 0  9994,2 51965  53.0543 171.2317 0001055  95.7756 264.3353 15.05575272132786,6927.877,95.645,550.473,549.011,0.0
